CCSDS_OMM_VERS = 2.0
CREATION_DATE  = 
ORIGINATOR     = 

OBJECT_NAME    = SL-16 R/B
OBJECT_ID      = 1993-016B
CENTER_NAME    = EARTH
REF_FRAME      = TEME
TIME_SYSTEM    = UTC
MEAN_ELEMENT_THEORY = SGP/SGP4

EPOCH          = 2026-01-14T20:28:24.809952
MEAN_MOTION    = 14.15293606
ECCENTRICITY   = .00086803
INCLINATION    = 71.0087
RA_OF_ASC_NODE = 328.2553
ARG_OF_PERICENTER = 34.1101
MEAN_ANOMALY   = 326.0578

EPHEMERIS_TYPE = 0
CLASSIFICATION_TYPE = U
NORAD_CAT_ID   = 22566
ELEMENT_SET_NO = 999
REV_AT_EPOCH   = 69455
BSTAR          = -.69413466E-4
MEAN_MOTION_DOT = -.183E-5
MEAN_MOTION_DDOT = 0

CCSDS_OMM_VERS = 2.0
CREATION_DATE  = 
ORIGINATOR     = 

OBJECT_NAME    = COSMOS 2242
OBJECT_ID      = 1993-024A
CENTER_NAME    = EARTH
REF_FRAME      = TEME
TIME_SYSTEM    = UTC
MEAN_ELEMENT_THEORY = SGP/SGP4

EPOCH          = 2026-01-14T22:35:20.277024
MEAN_MOTION    = 14.96271798
ECCENTRICITY   = .00177407
INCLINATION    = 82.5209
RA_OF_ASC_NODE = 318.1093
ARG_OF_PERICENTER = 122.1535
MEAN_ANOMALY   = 238.1411

EPHEMERIS_TYPE = 0
CLASSIFICATION_TYPE = U
NORAD_CAT_ID   = 22626
ELEMENT_SET_NO = 999
REV_AT_EPOCH   = 77235
BSTAR          = .12134775E-3
MEAN_MOTION_DOT = .1401E-4
MEAN_MOTION_DDOT = 0

CCSDS_OMM_VERS = 2.0
CREATION_DATE  = 
ORIGINATOR     = 

OBJECT_NAME    = SL-16 R/B
OBJECT_ID      = 1993-059B
CENTER_NAME    = EARTH
REF_FRAME      = TEME
TIME_SYSTEM    = UTC
MEAN_ELEMENT_THEORY = SGP/SGP4

EPOCH          = 2026-01-14T13:15:52.396992
MEAN_MOTION    = 14.17220628
ECCENTRICITY   = .0019324
INCLINATION    = 70.9909
RA_OF_ASC_NODE = 125.2938
ARG_OF_PERICENTER = 290.0637
MEAN_ANOMALY   = 69.8407

EPHEMERIS_TYPE = 0
CLASSIFICATION_TYPE = U
NORAD_CAT_ID   = 22803
ELEMENT_SET_NO = 999
REV_AT_EPOCH   = 67186
BSTAR          = .13643E-3
MEAN_MOTION_DOT = .228E-5
MEAN_MOTION_DDOT = 0

CCSDS_OMM_VERS = 2.0
CREATION_DATE  = 
ORIGINATOR     = 

OBJECT_NAME    = ARIANE 40 R/B
OBJECT_ID      = 1993-061H
CENTER_NAME    = EARTH
REF_FRAME      = TEME
TIME_SYSTEM    = UTC
MEAN_ELEMENT_THEORY = SGP/SGP4

EPOCH          = 2026-01-14T18:55:58.495872
MEAN_MOTION    = 14.32825428
ECCENTRICITY   = .0011811
INCLINATION    = 98.5026
RA_OF_ASC_NODE = 84.7100
ARG_OF_PERICENTER = 85.2735
MEAN_ANOMALY   = 274.9797

EPHEMERIS_TYPE = 0
CLASSIFICATION_TYPE = U
NORAD_CAT_ID   = 22830
ELEMENT_SET_NO = 999
REV_AT_EPOCH   = 68638
BSTAR          = .63122E-4
MEAN_MOTION_DOT = .129E-5
MEAN_MOTION_DDOT = 0

CCSDS_OMM_VERS = 2.0
CREATION_DATE  = 
ORIGINATOR     = 

OBJECT_NAME    = COSMOS 2278
OBJECT_ID      = 1994-023A
CENTER_NAME    = EARTH
REF_FRAME      = TEME
TIME_SYSTEM    = UTC
MEAN_ELEMENT_THEORY = SGP/SGP4

EPOCH          = 2026-01-14T20:20:10.509504
MEAN_MOTION    = 14.14364142
ECCENTRICITY   = .00067073
INCLINATION    = 71.0549
RA_OF_ASC_NODE = 287.7448
ARG_OF_PERICENTER = 117.7997
MEAN_ANOMALY   = 242.3806

EPHEMERIS_TYPE = 0
CLASSIFICATION_TYPE = U
NORAD_CAT_ID   = 23087
ELEMENT_SET_NO = 999
REV_AT_EPOCH   = 63719
BSTAR          = .10735252E-3
MEAN_MOTION_DOT = .158E-5
MEAN_MOTION_DDOT = 0

CCSDS_OMM_VERS = 2.0
CREATION_DATE  = 
ORIGINATOR     = 

OBJECT_NAME    = SL-16 R/B
OBJECT_ID      = 1994-023B
CENTER_NAME    = EARTH
REF_FRAME      = TEME
TIME_SYSTEM    = UTC
MEAN_ELEMENT_THEORY = SGP/SGP4

EPOCH          = 2026-01-14T20:20:29.129568
MEAN_MOTION    = 14.15005511
ECCENTRICITY   = .00033307
INCLINATION    = 70.9991
RA_OF_ASC_NODE = 183.9585
ARG_OF_PERICENTER = 339.8073
MEAN_ANOMALY   = 20.2917

EPHEMERIS_TYPE = 0
CLASSIFICATION_TYPE = U
NORAD_CAT_ID   = 23088
ELEMENT_SET_NO = 999
REV_AT_EPOCH   = 63847
BSTAR          = .13437728E-3
MEAN_MOTION_DOT = .213E-5
MEAN_MOTION_DDOT = 0

CCSDS_OMM_VERS = 2.0
CREATION_DATE  = 
ORIGINATOR     = 

OBJECT_NAME    = SL-16 R/B
OBJECT_ID      = 1994-074B
CENTER_NAME    = EARTH
REF_FRAME      = TEME
TIME_SYSTEM    = UTC
MEAN_ELEMENT_THEORY = SGP/SGP4

EPOCH          = 2026-01-14T23:03:09.487872
MEAN_MOTION    = 14.79332891
ECCENTRICITY   = .00075619
INCLINATION    = 97.7172
RA_OF_ASC_NODE = 47.9397
ARG_OF_PERICENTER = 45.6432
MEAN_ANOMALY   = 50.6651

EPHEMERIS_TYPE = 0
CLASSIFICATION_TYPE = U
NORAD_CAT_ID   = 23343
ELEMENT_SET_NO = 999
REV_AT_EPOCH   = 67930
BSTAR          = .45751346E-4
MEAN_MOTION_DOT = .291E-5
MEAN_MOTION_DDOT = 0

CCSDS_OMM_VERS = 2.0
CREATION_DATE  = 
ORIGINATOR     = 

OBJECT_NAME    = SL-16 R/B
OBJECT_ID      = 1994-077B
CENTER_NAME    = EARTH
REF_FRAME      = TEME
TIME_SYSTEM    = UTC
MEAN_ELEMENT_THEORY = SGP/SGP4

EPOCH          = 2026-01-14T15:19:00.091200
MEAN_MOTION    = 14.15554858
ECCENTRICITY   = .0004788
INCLINATION    = 70.9836
RA_OF_ASC_NODE = 106.2055
ARG_OF_PERICENTER = 257.6851
MEAN_ANOMALY   = 102.3736

EPHEMERIS_TYPE = 0
CLASSIFICATION_TYPE = U
NORAD_CAT_ID   = 23405
ELEMENT_SET_NO = 999
REV_AT_EPOCH   = 60858
BSTAR          = .16127E-3
MEAN_MOTION_DOT = .268E-5
MEAN_MOTION_DDOT = 0

CCSDS_OMM_VERS = 2.0
CREATION_DATE  = 
ORIGINATOR     = 

OBJECT_NAME    = ARIANE 40+ R/B
OBJECT_ID      = 1995-021B
CENTER_NAME    = EARTH
REF_FRAME      = TEME
TIME_SYSTEM    = UTC
MEAN_ELEMENT_THEORY = SGP/SGP4

EPOCH          = 2026-01-14T19:52:39.866016
MEAN_MOTION    = 14.39724129
ECCENTRICITY   = .0005759
INCLINATION    = 98.4604
RA_OF_ASC_NODE = 87.0111
ARG_OF_PERICENTER = 308.7674
MEAN_ANOMALY   = 165.8252

EPHEMERIS_TYPE = 0
CLASSIFICATION_TYPE = U
NORAD_CAT_ID   = 23561
ELEMENT_SET_NO = 999
REV_AT_EPOCH   = 61149
BSTAR          = .71726E-4
MEAN_MOTION_DOT = .181E-5
MEAN_MOTION_DDOT = 0

CCSDS_OMM_VERS = 2.0
CREATION_DATE  = 
ORIGINATOR     = 

OBJECT_NAME    = SL-16 R/B
OBJECT_ID      = 1995-058B
CENTER_NAME    = EARTH
REF_FRAME      = TEME
TIME_SYSTEM    = UTC
MEAN_ELEMENT_THEORY = SGP/SGP4

EPOCH          = 2026-01-14T20:30:29.240640
MEAN_MOTION    = 14.15490118
ECCENTRICITY   = .00136494
INCLINATION    = 71.0228
RA_OF_ASC_NODE = 293.2810
ARG_OF_PERICENTER = 211.2341
MEAN_ANOMALY   = 148.7973

EPHEMERIS_TYPE = 0
CLASSIFICATION_TYPE = U
NORAD_CAT_ID   = 23705
ELEMENT_SET_NO = 999
REV_AT_EPOCH   = 56023
BSTAR          = -.948112E-6
MEAN_MOTION_DOT = -.49E-6
MEAN_MOTION_DDOT = 0

CCSDS_OMM_VERS = 2.0
CREATION_DATE  = 
ORIGINATOR     = 

OBJECT_NAME    = SL-16 R/B
OBJECT_ID      = 1996-051B
CENTER_NAME    = EARTH
REF_FRAME      = TEME
TIME_SYSTEM    = UTC
MEAN_ELEMENT_THEORY = SGP/SGP4

EPOCH          = 2026-01-14T20:17:58.593120
MEAN_MOTION    = 14.12400809
ECCENTRICITY   = .0018981
INCLINATION    = 70.7594
RA_OF_ASC_NODE = 289.2091
ARG_OF_PERICENTER = 220.5494
MEAN_ANOMALY   = 139.4212

EPHEMERIS_TYPE = 0
CLASSIFICATION_TYPE = U
NORAD_CAT_ID   = 24298
ELEMENT_SET_NO = 999
REV_AT_EPOCH   = 51404
BSTAR          = .23352692E-4
MEAN_MOTION_DOT = -.6E-7
MEAN_MOTION_DDOT = 0

CCSDS_OMM_VERS = 2.0
CREATION_DATE  = 
ORIGINATOR     = 

OBJECT_NAME    = ORBVIEW 2 (SEASTAR)
OBJECT_ID      = 1997-037A
CENTER_NAME    = EARTH
REF_FRAME      = TEME
TIME_SYSTEM    = UTC
MEAN_ELEMENT_THEORY = SGP/SGP4

EPOCH          = 2026-01-14T22:55:59.420640
MEAN_MOTION    = 14.35445256
ECCENTRICITY   = .00018309
INCLINATION    = 98.8480
RA_OF_ASC_NODE = 177.8714
ARG_OF_PERICENTER = 193.7312
MEAN_ANOMALY   = 166.3823

EPHEMERIS_TYPE = 0
CLASSIFICATION_TYPE = U
NORAD_CAT_ID   = 24883
ELEMENT_SET_NO = 999
REV_AT_EPOCH   = 50076
BSTAR          = .79589445E-4
MEAN_MOTION_DOT = .182E-5
MEAN_MOTION_DDOT = 0

