SL-16 R/B               
1 22566U 93016B   26014.85306493 -.00000183  00000+0 -69413-4 0  9991
2 22566  71.0087 328.2553 0008680  34.1101 326.0578 14.15293606694553
COSMOS 2242             
1 22626U 93024A   26014.94120691  .00001401  00000+0  12135-3 0  9991
2 22626  82.5209 318.1093 0017740 122.1535 238.1411 14.96271798772357
SL-16 R/B               
1 22803U 93059B   26014.55268978  .00000228  00000+0  13643-3 0  9995
2 22803  70.9909 125.2938 0019324 290.0637  69.8407 14.17220628671862
ARIANE 40 R/B           
1 22830U 93061H   26014.78887148  .00000129  00000+0  63122-4 0  9997
2 22830  98.5026  84.7100 0011811  85.2735 274.9797 14.32825428686384
COSMOS 2278             
1 23087U 94023A   26014.84734386  .00000158  00000+0  10735-3 0  9996
2 23087  71.0549 287.7448 0006707 117.7997 242.3806 14.14364142637190
SL-16 R/B               
1 23088U 94023B   26014.84755937  .00000213  00000+0  13438-3 0  9997
2 23088  70.9991 183.9585 0003330 339.8073  20.2917 14.15005511638471
SL-16 R/B               
1 23343U 94074B   26014.96052648  .00000291  00000+0  45751-4 0  9999
2 23343  97.7172  47.9397 0007561  45.6432  50.6651 14.79332891679307
SL-16 R/B               
1 23405U 94077B   26014.63819550  .00000268  00000+0  16127-3 0  9996
2 23405  70.9836 106.2055 0004788 257.6851 102.3736 14.15554858608584
ARIANE 40+ R/B          
1 23561U 95021B   26014.82823919  .00000181  00000+0  71726-4 0  9995
2 23561  98.4604  87.0111 0005759 308.7674 165.8252 14.39724129611491
SL-16 R/B               
1 23705U 95058B   26014.85450510 -.00000049  00000+0 -94811-6 0  9998
2 23705  71.0228 293.2810 0013649 211.2341 148.7973 14.15490118560230
SL-16 R/B               
1 24298U 96051B   26014.84581705 -.00000006  00000+0  23353-4 0  9993
2 24298  70.7594 289.2091 0018981 220.5494 139.4212 14.12400809514048
ORBVIEW 2 (SEASTAR)     
1 24883U 97037A   26014.95554885  .00000182  00000+0  79589-4 0  9995
2 24883  98.8480 177.8714 0001830 193.7312 166.3823 14.35445256500763
